{
    "links": {
        "self": "http://www.neowsapp.com/rest/v1/neo/54081197?api_key=iIulBulltgU6a56xZRHN4H3l9WmuAYTsLGpBGhQ2"
    },
    "id": "54081197",
    "neo_reference_id": "54081197",
    "name": "(2020 UO6)",
    "designation": "2020 UO6",
    "nasa_jpl_url": "http://ssd.jpl.nasa.gov/sbdb.cgi?sstr=54081197",
    "absolute_magnitude_h": 27.33,
    "estimated_diameter": {
        "kilometers": {
            "estimated_diameter_min": 0.0090898136,
            "estimated_diameter_max": 0.0203254411
        },
        "meters": {
            "estimated_diameter_min": 9.089813582,
            "estimated_diameter_max": 20.3254410722
        },
        "miles": {
            "estimated_diameter_min": 0.0056481466,
            "estimated_diameter_max": 0.0126296396
        },
        "feet": {
            "estimated_diameter_min": 29.8222239924,
            "estimated_diameter_max": 66.6845200873
        }
    },
    "is_potentially_hazardous_asteroid": false,
    "close_approach_data": [
        {
            "close_approach_date": "2020-10-26",
            "close_approach_date_full": "2020-Oct-26 01:16",
            "epoch_date_close_approach": 1603674960000,
            "relative_velocity": {
                "kilometers_per_second": "8.8720395478",
                "kilometers_per_hour": "31939.3423721535",
                "miles_per_hour": "19845.8652645195"
            },
            "miss_distance": {
                "astronomical": "0.0049655798",
                "lunar": "1.9316105422",
                "kilometers": "742840.161395026",
                "miles": "461579.4725663188"
            },
            "orbiting_body": "Moon"
        },
        {
            "close_approach_date": "2020-10-26",
            "close_approach_date_full": "2020-Oct-26 04:08",
            "epoch_date_close_approach": 1603685280000,
            "relative_velocity": {
                "kilometers_per_second": "9.6574534784",
                "kilometers_per_hour": "34766.8325220838",
                "miles_per_hour": "21602.7576857359"
            },
            "miss_distance": {
                "astronomical": "0.0053150155",
                "lunar": "2.0675410295",
                "kilometers": "795114.997816985",
                "miles": "494061.549704993"
            },
            "orbiting_body": "Earth"
        },
        {
            "close_approach_date": "2123-09-13",
            "close_approach_date_full": "2123-Sep-13 09:56",
            "epoch_date_close_approach": 4850272560000,
            "relative_velocity": {
                "kilometers_per_second": "2.8486768535",
                "kilometers_per_hour": "10255.2366725463",
                "miles_per_hour": "6372.2052535608"
            },
            "miss_distance": {
                "astronomical": "1.793759124",
                "lunar": "697.772299236",
                "kilometers": "268342544.24346588",
                "miles": "166740325.141273944"
            },
            "orbiting_body": "Juptr"
        }
    ],
    "orbital_data": {
        "orbit_id": "4",
        "orbit_determination_date": "2020-10-30 07:14:59",
        "first_observation_date": "2020-10-27",
        "last_observation_date": "2020-10-30",
        "data_arc_in_days": 3,
        "observations_used": 45,
        "orbit_uncertainty": "7",
        "minimum_orbit_intersection": ".00565707",
        "jupiter_tisserand_invariant": "3.299",
        "epoch_osculation": "2459000.5",
        "eccentricity": ".584125376918762",
        "semi_major_axis": "2.348470912256575",
        "inclination": "6.467523565832265",
        "ascending_node_longitude": "214.836876027431",
        "orbital_period": "1314.547262355875",
        "perihelion_distance": ".9766694554519542",
        "perihelion_argument": "158.5818111418194",
        "aphelion_distance": "3.720272369061195",
        "perihelion_time": "2459133.310325883181",
        "mean_anomaly": "323.628757453529",
        "mean_motion": ".2738585445416572",
        "equinox": "J2000",
        "orbit_class": {
            "orbit_class_type": "APO",
            "orbit_class_description": "Near-Earth asteroid orbits which cross the Earth’s orbit similar to that of 1862 Apollo",
            "orbit_class_range": "a (semi-major axis) > 1.0 AU; q (perihelion) < 1.017 AU"
        }
    },
    "is_sentry_object": false
}